KINEIS-1B               
1 60079U 24114A   26191.83990138  .00000448  00000+0  65231-4 0  9990
2 60079  97.9827 215.9124 0003272  47.8608 312.2881 14.80662993110901
KINEIS-1C               
1 60081U 24114C   26191.87353919  .00000408  00000+0  60007-4 0  9999
2 60081  97.9841 215.8002 0002544 100.3392 259.8107 14.80664871110881
KINEIS-1D               
1 60082U 24114D   26191.83339154  .00000342  00000+0  56601-4 0  9993
2 60082  97.9877 211.7106 0002900 104.9629 255.1902 14.76359165110615
KINEIS-1E               
1 60083U 24114E   26191.82385064  .00000529  00000+0  75580-4 0  9998
2 60083  97.8943 214.8685 0003989 118.6253 241.5361 14.80689566110881
KINEIS-1A               
1 60084U 24114F   26191.85725890  .00000461  00000+0  66755-4 0  9996
2 60084  97.8916 214.9966 0005554  72.9236 287.2585 14.80678157110898
KINEIS-3C               
1 61220U 24172A   26189.82018517  .00001184  00000+0  19490-3 0  9994
2 61220  98.0431 279.4900 0002749  92.2536 267.8986 14.72355818 96250
KINEIS-3D               
1 61221U 24172B   26189.81344248  .00001106  00000+0  18256-3 0  9990
2 61221  98.0427 279.4937 0002612  92.0165 268.1342 14.72360142 96538
KINEIS-3E               
1 61222U 24172C   26191.22363274  .00001150  00000+0  18971-3 0  9992
2 61222  98.0428 280.8705 0001839  91.6471 268.4947 14.72330048 96743
KINEIS-3A               
1 61223U 24172D   26191.47895619  .00001075  00000+0  17800-3 0  9999
2 61223  98.0425 281.2214 0002490  51.6432 308.4998 14.72300229 96208
KINEIS-3B               
1 61224U 24172E   26191.18968831  .00001150  00000+0  18983-3 0  9992
2 61224  98.0418 280.9579 0002007  39.6164 320.5189 14.72286063 96737
KINEIS-5C               
1 62081U 24219A   26191.84656860  .00000353  00000+0  63524-4 0  9991
2 62081  97.9061 350.0443 0003800 186.5542 173.5616 14.72311242 87238
KINEIS-5D               
1 62082U 24219B   26191.80565471  .00000528  00000+0  90784-4 0  9997
2 62082  97.9175 350.0651 0004922 180.6085 179.5118 14.72488713 87230
KINEIS-5E               
1 62083U 24219C   26191.82290275  .00000338  00000+0  61065-4 0  9996
2 62083  97.9019 350.1180 0006414 177.7437 182.3800 14.72296000 87249
KINEIS-5A               
1 62084U 24219D   26191.80096237  .00000715  00000+0  12101-3 0  9992
2 62084  97.8960 350.3798 0003428 216.4059 143.6916 14.72235042 87241
KINEIS-5B               
1 62085U 24219E   26191.80461274  .00000625  00000+0  93009-4 0  9997
2 62085  98.0085 355.5046 0002191 154.1769 205.9551 14.78379891 87499
KINEIS-2C               
1 62929U 25028B   26191.41070860  .00000947  00000+0  15394-3 0  9994
2 62929  98.1232 245.8291 0003863 172.2579 187.8689 14.73420783 76031
