{"fetched_at":"2026-07-11T06:35:34.580Z","source":"https://celestrak.org/NORAD/elements/gp.php?NAME=KINEIS&FORMAT=JSON","constellation":"kineis","records":[{"OBJECT_NAME":"KINEIS-1B","OBJECT_ID":"2024-114A","EPOCH":"2026-07-10T20:09:27.479232","CLASSIFICATION_TYPE":"U","MEAN_MOTION":14.80662993,"ECCENTRICITY":0.0003272,"INCLINATION":97.9827,"RA_OF_ASC_NODE":215.9124,"ARG_OF_PERICENTER":47.8608,"MEAN_ANOMALY":312.2881,"EPHEMERIS_TYPE":0,"NORAD_CAT_ID":60079,"ELEMENT_SET_NO":999,"REV_AT_EPOCH":11090,"BSTAR":0.000065231,"MEAN_MOTION_DOT":0.00000448,"MEAN_MOTION_DDOT":0},{"OBJECT_NAME":"KINEIS-1C","OBJECT_ID":"2024-114C","EPOCH":"2026-07-10T20:57:53.786016","CLASSIFICATION_TYPE":"U","MEAN_MOTION":14.80664871,"ECCENTRICITY":0.0002544,"INCLINATION":97.9841,"RA_OF_ASC_NODE":215.8002,"ARG_OF_PERICENTER":100.3392,"MEAN_ANOMALY":259.8107,"EPHEMERIS_TYPE":0,"NORAD_CAT_ID":60081,"ELEMENT_SET_NO":999,"REV_AT_EPOCH":11088,"BSTAR":0.000060007,"MEAN_MOTION_DOT":0.00000408,"MEAN_MOTION_DDOT":0},{"OBJECT_NAME":"KINEIS-1D","OBJECT_ID":"2024-114D","EPOCH":"2026-07-10T20:00:05.029056","CLASSIFICATION_TYPE":"U","MEAN_MOTION":14.76359165,"ECCENTRICITY":0.00029,"INCLINATION":97.9877,"RA_OF_ASC_NODE":211.7106,"ARG_OF_PERICENTER":104.9629,"MEAN_ANOMALY":255.1902,"EPHEMERIS_TYPE":0,"NORAD_CAT_ID":60082,"ELEMENT_SET_NO":999,"REV_AT_EPOCH":11061,"BSTAR":0.000056601,"MEAN_MOTION_DOT":0.00000342,"MEAN_MOTION_DDOT":0},{"OBJECT_NAME":"KINEIS-1E","OBJECT_ID":"2024-114E","EPOCH":"2026-07-10T19:46:20.695296","CLASSIFICATION_TYPE":"U","MEAN_MOTION":14.80689566,"ECCENTRICITY":0.0003989,"INCLINATION":97.8943,"RA_OF_ASC_NODE":214.8685,"ARG_OF_PERICENTER":118.6253,"MEAN_ANOMALY":241.5361,"EPHEMERIS_TYPE":0,"NORAD_CAT_ID":60083,"ELEMENT_SET_NO":999,"REV_AT_EPOCH":11088,"BSTAR":0.00007558,"MEAN_MOTION_DOT":0.00000529,"MEAN_MOTION_DDOT":0},{"OBJECT_NAME":"KINEIS-1A","OBJECT_ID":"2024-114F","EPOCH":"2026-07-10T20:34:27.168960","CLASSIFICATION_TYPE":"U","MEAN_MOTION":14.80678157,"ECCENTRICITY":0.0005554,"INCLINATION":97.8916,"RA_OF_ASC_NODE":214.9966,"ARG_OF_PERICENTER":72.9236,"MEAN_ANOMALY":287.2585,"EPHEMERIS_TYPE":0,"NORAD_CAT_ID":60084,"ELEMENT_SET_NO":999,"REV_AT_EPOCH":11089,"BSTAR":0.000066755,"MEAN_MOTION_DOT":0.00000461,"MEAN_MOTION_DDOT":0},{"OBJECT_NAME":"KINEIS-3C","OBJECT_ID":"2024-172A","EPOCH":"2026-07-08T19:41:03.998688","CLASSIFICATION_TYPE":"U","MEAN_MOTION":14.72355818,"ECCENTRICITY":0.00027496,"INCLINATION":98.0431,"RA_OF_ASC_NODE":279.49,"ARG_OF_PERICENTER":92.2536,"MEAN_ANOMALY":267.8986,"EPHEMERIS_TYPE":0,"NORAD_CAT_ID":61220,"ELEMENT_SET_NO":999,"REV_AT_EPOCH":9625,"BSTAR":0.00019489517,"MEAN_MOTION_DOT":0.00001184,"MEAN_MOTION_DDOT":0},{"OBJECT_NAME":"KINEIS-3D","OBJECT_ID":"2024-172B","EPOCH":"2026-07-08T19:31:21.430272","CLASSIFICATION_TYPE":"U","MEAN_MOTION":14.72360142,"ECCENTRICITY":0.00026129,"INCLINATION":98.0427,"RA_OF_ASC_NODE":279.4937,"ARG_OF_PERICENTER":92.0165,"MEAN_ANOMALY":268.1342,"EPHEMERIS_TYPE":0,"NORAD_CAT_ID":61221,"ELEMENT_SET_NO":999,"REV_AT_EPOCH":9653,"BSTAR":0.0001825622,"MEAN_MOTION_DOT":0.00001106,"MEAN_MOTION_DDOT":0},{"OBJECT_NAME":"KINEIS-3E","OBJECT_ID":"2024-172C","EPOCH":"2026-07-10T05:22:01.868736","CLASSIFICATION_TYPE":"U","MEAN_MOTION":14.72330048,"ECCENTRICITY":0.00018391,"INCLINATION":98.0428,"RA_OF_ASC_NODE":280.8705,"ARG_OF_PERICENTER":91.6471,"MEAN_ANOMALY":268.4947,"EPHEMERIS_TYPE":0,"NORAD_CAT_ID":61222,"ELEMENT_SET_NO":999,"REV_AT_EPOCH":9674,"BSTAR":0.00018970967,"MEAN_MOTION_DOT":0.0000115,"MEAN_MOTION_DDOT":0},{"OBJECT_NAME":"KINEIS-3A","OBJECT_ID":"2024-172D","EPOCH":"2026-07-10T11:29:41.814816","CLASSIFICATION_TYPE":"U","MEAN_MOTION":14.72300229,"ECCENTRICITY":0.000249,"INCLINATION":98.0425,"RA_OF_ASC_NODE":281.2214,"ARG_OF_PERICENTER":51.6432,"MEAN_ANOMALY":308.4998,"EPHEMERIS_TYPE":0,"NORAD_CAT_ID":61223,"ELEMENT_SET_NO":999,"REV_AT_EPOCH":9620,"BSTAR":0.000178,"MEAN_MOTION_DOT":0.00001075,"MEAN_MOTION_DDOT":0},{"OBJECT_NAME":"KINEIS-3B","OBJECT_ID":"2024-172E","EPOCH":"2026-07-10T04:33:09.069984","CLASSIFICATION_TYPE":"U","MEAN_MOTION":14.72286063,"ECCENTRICITY":0.00020078,"INCLINATION":98.0418,"RA_OF_ASC_NODE":280.9579,"ARG_OF_PERICENTER":39.6164,"MEAN_ANOMALY":320.5189,"EPHEMERIS_TYPE":0,"NORAD_CAT_ID":61224,"ELEMENT_SET_NO":999,"REV_AT_EPOCH":9673,"BSTAR":0.00018982563,"MEAN_MOTION_DOT":0.0000115,"MEAN_MOTION_DDOT":0},{"OBJECT_NAME":"KINEIS-5C","OBJECT_ID":"2024-219A","EPOCH":"2026-07-10T20:19:03.527040","CLASSIFICATION_TYPE":"U","MEAN_MOTION":14.72311242,"ECCENTRICITY":0.00038,"INCLINATION":97.9061,"RA_OF_ASC_NODE":350.0443,"ARG_OF_PERICENTER":186.5542,"MEAN_ANOMALY":173.5616,"EPHEMERIS_TYPE":0,"NORAD_CAT_ID":62081,"ELEMENT_SET_NO":999,"REV_AT_EPOCH":8723,"BSTAR":0.000063524,"MEAN_MOTION_DOT":0.00000353,"MEAN_MOTION_DDOT":0},{"OBJECT_NAME":"KINEIS-5D","OBJECT_ID":"2024-219B","EPOCH":"2026-07-10T19:20:08.566944","CLASSIFICATION_TYPE":"U","MEAN_MOTION":14.72488713,"ECCENTRICITY":0.0004922,"INCLINATION":97.9175,"RA_OF_ASC_NODE":350.0651,"ARG_OF_PERICENTER":180.6085,"MEAN_ANOMALY":179.5118,"EPHEMERIS_TYPE":0,"NORAD_CAT_ID":62082,"ELEMENT_SET_NO":999,"REV_AT_EPOCH":8723,"BSTAR":0.000090784,"MEAN_MOTION_DOT":0.00000528,"MEAN_MOTION_DDOT":0},{"OBJECT_NAME":"KINEIS-5E","OBJECT_ID":"2024-219C","EPOCH":"2026-07-10T19:44:58.797600","CLASSIFICATION_TYPE":"U","MEAN_MOTION":14.72296,"ECCENTRICITY":0.0006414,"INCLINATION":97.9019,"RA_OF_ASC_NODE":350.118,"ARG_OF_PERICENTER":177.7437,"MEAN_ANOMALY":182.38,"EPHEMERIS_TYPE":0,"NORAD_CAT_ID":62083,"ELEMENT_SET_NO":999,"REV_AT_EPOCH":8724,"BSTAR":0.000061065,"MEAN_MOTION_DOT":0.00000338,"MEAN_MOTION_DDOT":0},{"OBJECT_NAME":"KINEIS-5A","OBJECT_ID":"2024-219D","EPOCH":"2026-07-10T19:13:23.148768","CLASSIFICATION_TYPE":"U","MEAN_MOTION":14.72235042,"ECCENTRICITY":0.0003428,"INCLINATION":97.896,"RA_OF_ASC_NODE":350.3798,"ARG_OF_PERICENTER":216.4059,"MEAN_ANOMALY":143.6916,"EPHEMERIS_TYPE":0,"NORAD_CAT_ID":62084,"ELEMENT_SET_NO":999,"REV_AT_EPOCH":8724,"BSTAR":0.00012101,"MEAN_MOTION_DOT":0.00000715,"MEAN_MOTION_DDOT":0},{"OBJECT_NAME":"KINEIS-5B","OBJECT_ID":"2024-219E","EPOCH":"2026-07-10T19:18:38.540736","CLASSIFICATION_TYPE":"U","MEAN_MOTION":14.78379891,"ECCENTRICITY":0.0002191,"INCLINATION":98.0085,"RA_OF_ASC_NODE":355.5046,"ARG_OF_PERICENTER":154.1769,"MEAN_ANOMALY":205.9551,"EPHEMERIS_TYPE":0,"NORAD_CAT_ID":62085,"ELEMENT_SET_NO":999,"REV_AT_EPOCH":8749,"BSTAR":0.000093009,"MEAN_MOTION_DOT":0.00000625,"MEAN_MOTION_DDOT":0},{"OBJECT_NAME":"KINEIS-2C","OBJECT_ID":"2025-028B","EPOCH":"2026-07-10T09:51:25.223040","CLASSIFICATION_TYPE":"U","MEAN_MOTION":14.73420783,"ECCENTRICITY":0.00038637,"INCLINATION":98.1232,"RA_OF_ASC_NODE":245.8291,"ARG_OF_PERICENTER":172.2579,"MEAN_ANOMALY":187.8689,"EPHEMERIS_TYPE":0,"NORAD_CAT_ID":62929,"ELEMENT_SET_NO":999,"REV_AT_EPOCH":7603,"BSTAR":0.00015394419,"MEAN_MOTION_DOT":0.00000947,"MEAN_MOTION_DDOT":0}]}
